{"type":"FeatureCollection","features":[{"type":"Feature","properties":{"name":"Clay Demo","description":"","satellite_name":"Sentinel-2","images":{"2024-02-24T00:00:00.000Z":[{"url":"https://planetarycomputer.microsoft.com/api/stac/v1/collections/sentinel-2-l2a/items/S2B_MSIL2A_20240224T173319_R055_T13SGU_20240224T231804","bands":[{"name":"B01","wavelength":0.443},{"name":"B03","wavelength":0.56},{"name":"B05","wavelength":0.704},{"name":"B09","wavelength":0.945},{"name":"B12","wavelength":2.19},{"name":"B04","wavelength":0.665},{"name":"B07","wavelength":0.783},{"name":"B11","wavelength":1.61},{"name":"SCL","wavelength":-1},{"name":"B08","wavelength":0.842},{"name":"B02","wavelength":0.49},{"name":"B06","wavelength":0.74},{"name":"B8A","wavelength":0.865}],"provider":"planetary","preview_url":"https://planetarycomputer.microsoft.com/api/stac/v1/collections/sentinel-2-l2a/items/S2B_MSIL2A_20240224T173319_R055_T13SGU_20240224T231804&resampling_method=nearest&assets=visual&bidx=1&bidx=2&bidx=3","sun_elevation":0,"satellite_name":"Sentinel-2B","collection_name":"sentinel-2-l2a","satellite_look_angle":0}]},"bands":["B01","B02","B03","B04","B05","B06","B07","B08","B09","B11","B12","B8A","SCL"],"created_at":"2024-03-05 08:58:48.833020+00:00","updated_at":"2024-03-05 08:59:16.269201+00:00"},"geometry":{"coordinates":[[[-102.28723291319787,34.31831396248683],[-102.28723291319787,34.311372178757566],[-102.27795387838479,34.311372178757566],[-102.27795387838479,34.31831396248683],[-102.28723291319787,34.31831396248683]]],"type":"Polygon"}}]}
